{
    "links": {
        "self": "http://www.neowsapp.com/rest/v1/neo/3763942?api_key=iIulBulltgU6a56xZRHN4H3l9WmuAYTsLGpBGhQ2"
    },
    "id": "3763942",
    "neo_reference_id": "3763942",
    "name": "(2016 WQ)",
    "designation": "2016 WQ",
    "nasa_jpl_url": "http://ssd.jpl.nasa.gov/sbdb.cgi?sstr=3763942",
    "absolute_magnitude_h": 25.5,
    "estimated_diameter": {
        "kilometers": {
            "estimated_diameter_min": 0.0211132445,
            "estimated_diameter_max": 0.0472106499
        },
        "meters": {
            "estimated_diameter_min": 21.113244479,
            "estimated_diameter_max": 47.2106498806
        },
        "miles": {
            "estimated_diameter_min": 0.0131191578,
            "estimated_diameter_max": 0.0293353287
        },
        "feet": {
            "estimated_diameter_min": 69.2691770164,
            "estimated_diameter_max": 154.8905885541
        }
    },
    "is_potentially_hazardous_asteroid": false,
    "close_approach_data": [
        {
            "close_approach_date": "1900-04-06",
            "close_approach_date_full": "1900-Apr-06 16:58",
            "epoch_date_close_approach": -2200719720000,
            "relative_velocity": {
                "kilometers_per_second": "14.2782481706",
                "kilometers_per_hour": "51401.6934143108",
                "miles_per_hour": "31939.0133329089"
            },
            "miss_distance": {
                "astronomical": "0.055487351",
                "lunar": "21.584579539",
                "kilometers": "8300789.52154237",
                "miles": "5157871.435009906"
            },
            "orbiting_body": "Earth"
        },
        {
            "close_approach_date": "1902-04-28",
            "close_approach_date_full": "1902-Apr-28 22:24",
            "epoch_date_close_approach": -2135727360000,
            "relative_velocity": {
                "kilometers_per_second": "16.5745621679",
                "kilometers_per_hour": "59668.4238042848",
                "miles_per_hour": "37075.6381132791"
            },
            "miss_distance": {
                "astronomical": "0.0769392859",
                "lunar": "29.9293822151",
                "kilometers": "11509953.289961033",
                "miles": "7151953.3338989354"
            },
            "orbiting_body": "Mars"
        },
        {
            "close_approach_date": "2016-11-30",
            "close_approach_date_full": "2016-Nov-30 10:56",
            "epoch_date_close_approach": 1480503360000,
            "relative_velocity": {
                "kilometers_per_second": "13.5628601853",
                "kilometers_per_hour": "48826.2966671992",
                "miles_per_hour": "30338.7619485716"
            },
            "miss_distance": {
                "astronomical": "0.0114340366",
                "lunar": "4.4478402374",
                "kilometers": "1710507.520862042",
                "miles": "1062860.0879864996"
            },
            "orbiting_body": "Earth"
        }
    ],
    "orbital_data": {
        "orbit_id": "7",
        "orbit_determination_date": "2017-04-06 08:22:08",
        "first_observation_date": "2016-11-18",
        "last_observation_date": "2016-11-29",
        "data_arc_in_days": 11,
        "observations_used": 39,
        "orbit_uncertainty": "8",
        "minimum_orbit_intersection": ".00934524",
        "jupiter_tisserand_invariant": "3.846",
        "epoch_osculation": "2457713.5",
        "eccentricity": ".5624444877197129",
        "semi_major_axis": "1.811096129948093",
        "inclination": "3.969609833022492",
        "ascending_node_longitude": "240.0581372841389",
        "orbital_period": "890.2473317773823",
        "perihelion_distance": ".7924550949282834",
        "perihelion_argument": "251.0063894894608",
        "aphelion_distance": "2.829737164967903",
        "perihelion_time": "2457765.030632341677",
        "mean_anomaly": "339.161939630904",
        "mean_motion": ".4043820039103724",
        "equinox": "J2000",
        "orbit_class": {
            "orbit_class_type": "APO",
            "orbit_class_description": "Near-Earth asteroid orbits which cross the Earth’s orbit similar to that of 1862 Apollo",
            "orbit_class_range": "a (semi-major axis) > 1.0 AU; q (perihelion) < 1.017 AU"
        }
    },
    "is_sentry_object": false
}